start=new Date('2022-01-16T00:00:00.000Z').valueOf();
sats=[{"TIME_SYSTEM":"UTC","PERIOD":"95.592","FILE":"3273699","MEAN_MOTION_DDOT":"0.0000000000000","EPOCH":"2022-01-15T12:00:29.790720","SEMIMAJOR_AXIS":"6925.349","NORAD_CAT_ID":"48677","ECCENTRICITY":"0.00012640","OBJECT_TYPE":"PAYLOAD","BSTAR":"0.00010997000000","TLE_LINE1":"1 48677U 21044AR  22015.50034480  .00001357  00000-0  10997-3 0  9992","RA_OF_ASC_NODE":"69.0696","LAUNCH_DATE":"2021-05-26","MEAN_MOTION_DOT":"0.00001357","APOAPSIS":"548.090","REV_AT_EPOCH":"3646","REF_FRAME":"TEME","DECAY_DATE":null,"CENTER_NAME":"EARTH","ARG_OF_PERICENTER":"81.8905","MEAN_ELEMENT_THEORY":"SGP4","EPHEMERIS_TYPE":"0","COUNTRY_CODE":"US","RCS_SIZE":"LARGE","OBJECT_NAME":"STARLINK-2719","MEAN_ANOMALY":"278.2228","GP_ID":"193892711","ELEMENT_SET_NO":"999","OBJECT_ID":"2021-044AR","SITE":"AFETR","MEAN_MOTION":"15.06399797","CLASSIFICATION_TYPE":"U","PERIAPSIS":"546.339","INCLINATION":"53.0563","TLE_LINE2":"2 48677  53.0563  69.0696 0001264  81.8905 278.2228 15.06399797 36462"},{"REV_AT_EPOCH":"3564","RA_OF_ASC_NODE":"68.5014","MEAN_MOTION_DOT":"-0.00000736","LAUNCH_DATE":"2021-05-26","APOAPSIS":"548.056","BSTAR":"-0.00003052300000","TLE_LINE1":"1 48678U 21044AS  22015.62935100 -.00000736  00000-0 -30523-4 0  9995","ARG_OF_PERICENTER":"69.5847","MEAN_ELEMENT_THEORY":"SGP4","REF_FRAME":"TEME","DECAY_DATE":null,"CENTER_NAME":"EARTH","PERIOD":"95.592","FILE":"3274074","MEAN_MOTION_DDOT":"0.0000000000000","TIME_SYSTEM":"UTC","ECCENTRICITY":"0.00012470","OBJECT_TYPE":"PAYLOAD","EPOCH":"2022-01-15T15:06:15.926400","SEMIMAJOR_AXIS":"6925.328","NORAD_CAT_ID":"48678","MEAN_MOTION":"15.06406764","CLASSIFICATION_TYPE":"U","OBJECT_ID":"2021-044AS","SITE":"AFETR","ELEMENT_SET_NO":"999","INCLINATION":"53.0569","TLE_LINE2":"2 48678  53.0569  68.5014 0001247  69.5847 290.5275 15.06406764 35647","PERIAPSIS":"546.329","OBJECT_NAME":"STARLINK-2615","RCS_SIZE":"LARGE","EPHEMERIS_TYPE":"0","COUNTRY_CODE":"US","GP_ID":"193948727","MEAN_ANOMALY":"290.5275"},{"OBJECT_NAME":"STARLINK-2648","RCS_SIZE":"LARGE","COUNTRY_CODE":"US","EPHEMERIS_TYPE":"0","GP_ID":"193948977","MEAN_ANOMALY":"278.7684","CLASSIFICATION_TYPE":"U","MEAN_MOTION":"15.06409828","SITE":"AFETR","OBJECT_ID":"2021-044AT","ELEMENT_SET_NO":"999","TLE_LINE2":"2 48679  53.0570  68.5213 0001277  81.3450 278.7684 15.06409828 35642","INCLINATION":"53.0570","PERIAPSIS":"546.299","FILE":"3274074","MEAN_MOTION_DDOT":"0.0000000000000","PERIOD":"95.592","TIME_SYSTEM":"UTC","OBJECT_TYPE":"PAYLOAD","ECCENTRICITY":"0.00012770","SEMIMAJOR_AXIS":"6925.318","NORAD_CAT_ID":"48679","EPOCH":"2022-01-15T15:00:57.508704","REV_AT_EPOCH":"3564","APOAPSIS":"548.068","LAUNCH_DATE":"2021-05-26","MEAN_MOTION_DOT":"0.00001647","RA_OF_ASC_NODE":"68.5213","TLE_LINE1":"1 48679U 21044AT  22015.62566561  .00001647  00000-0  12940-3 0  9999","BSTAR":"0.00012940000000","MEAN_ELEMENT_THEORY":"SGP4","ARG_OF_PERICENTER":"81.3450","CENTER_NAME":"EARTH","REF_FRAME":"TEME","DECAY_DATE":null},{"MEAN_ANOMALY":"290.2470","GP_ID":"193918101","EPHEMERIS_TYPE":"0","COUNTRY_CODE":"US","OBJECT_NAME":"STARLINK-2649","RCS_SIZE":"LARGE","PERIAPSIS":"546.184","INCLINATION":"53.0566","TLE_LINE2":"2 48680  53.0566  69.1212 0001507  69.8681 290.2470 15.06395533 35625","ELEMENT_SET_NO":"999","MEAN_MOTION":"15.06395533","CLASSIFICATION_TYPE":"U","SITE":"AFETR","OBJECT_ID":"2021-044AU","ECCENTRICITY":"0.00015070","OBJECT_TYPE":"PAYLOAD","EPOCH":"2022-01-15T11:44:34.501344","NORAD_CAT_ID":"48680","SEMIMAJOR_AXIS":"6925.362","TIME_SYSTEM":"UTC","PERIOD":"95.592","MEAN_MOTION_DDOT":"0.0000000000000","FILE":"3273762","REF_FRAME":"TEME","DECAY_DATE":null,"CENTER_NAME":"EARTH","ARG_OF_PERICENTER":"69.8681","MEAN_ELEMENT_THEORY":"SGP4","RA_OF_ASC_NODE":"69.1212","APOAPSIS":"548.271","LAUNCH_DATE":"2021-05-26","MEAN_MOTION_DOT":"0.00000771","BSTAR":"0.00007063200000","TLE_LINE1":"1 48680U 21044AU  22015.48928821  .00000771  00000-0  70632-4 0  9996","REV_AT_EPOCH":"3562"},{"FILE":"3274074","MEAN_MOTION_DDOT":"0.0000000000000","PERIOD":"95.592","TIME_SYSTEM":"UTC","OBJECT_TYPE":"PAYLOAD","ECCENTRICITY":"0.00015140","SEMIMAJOR_AXIS":"6925.344","NORAD_CAT_ID":"48681","EPOCH":"2022-01-15T22:00:01.999584","REV_AT_EPOCH":"358","MEAN_MOTION_DOT":"0.00023008","LAUNCH_DATE":"2021-05-26","APOAPSIS":"548.258","RA_OF_ASC_NODE":"37.2237","TLE_LINE1":"1 48681U 21044AV  22015.91668981  .00023008  00000-0  15584-2 0  9994","BSTAR":"0.00155840000000","MEAN_ELEMENT_THEORY":"SGP4","ARG_OF_PERICENTER":"82.9376","CENTER_NAME":"EARTH","DECAY_DATE":null,"REF_FRAME":"TEME","OBJECT_NAME":"STARLINK-2725","RCS_SIZE":"LARGE","COUNTRY_CODE":"US","EPHEMERIS_TYPE":"0","GP_ID":"193949974","MEAN_ANOMALY":"206.4059","CLASSIFICATION_TYPE":"U","MEAN_MOTION":"15.06401463","OBJECT_ID":"2021-044AV","SITE":"AFETR","ELEMENT_SET_NO":"999","TLE_LINE2":"2 48681  53.0487  37.2237 0001514  82.9376 206.4059 15.06401463  3588","INCLINATION":"53.0487","PERIAPSIS":"546.161"},{"ELEMENT_SET_NO":"999","MEAN_MOTION":"15.06376232","CLASSIFICATION_TYPE":"U","SITE":"AFETR","OBJECT_ID":"2021-044AW","PERIAPSIS":"546.284","INCLINATION":"53.0533","TLE_LINE2":"2 48682  53.0533  27.2008 0001448  69.7021 194.6708 15.06376232  3597","EPHEMERIS_TYPE":"0","COUNTRY_CODE":"US","OBJECT_NAME":"STARLINK-2743","RCS_SIZE":"LARGE","MEAN_ANOMALY":"194.6708","GP_ID":"193948228","RA_OF_ASC_NODE":"27.2008","LAUNCH_DATE":"2021-05-26","APOAPSIS":"548.289","MEAN_MOTION_DOT":"0.00049858","BSTAR":"0.00334460000000","TLE_LINE1":"1 48682U 21044AW  22015.91668981  .00049858  00000-0  33446-2 0  9993","REV_AT_EPOCH":"359","REF_FRAME":"TEME","DECAY_DATE":null,"CENTER_NAME":"EARTH","ARG_OF_PERICENTER":"69.7021","MEAN_ELEMENT_THEORY":"SGP4","TIME_SYSTEM":"UTC","PERIOD":"95.594","MEAN_MOTION_DDOT":"0.0000000000000","FILE":"3274074","ECCENTRICITY":"0.00014480","OBJECT_TYPE":"PAYLOAD","EPOCH":"2022-01-15T22:00:01.999584","NORAD_CAT_ID":"48682","SEMIMAJOR_AXIS":"6925.421"},{"REF_FRAME":"TEME","DECAY_DATE":null,"CENTER_NAME":"EARTH","ARG_OF_PERICENTER":"79.7830","MEAN_ELEMENT_THEORY":"SGP4","RA_OF_ASC_NODE":"27.2006","LAUNCH_DATE":"2021-05-26","MEAN_MOTION_DOT":"0.00033001","APOAPSIS":"548.080","BSTAR":"0.00222480000000","TLE_LINE1":"1 48683U 21044AX  22015.91668981  .00033001  00000-0  22248-2 0  9995","REV_AT_EPOCH":"360","ECCENTRICITY":"0.00011930","OBJECT_TYPE":"PAYLOAD","EPOCH":"2022-01-15T22:00:01.999584","NORAD_CAT_ID":"48683","SEMIMAJOR_AXIS":"6925.389","TIME_SYSTEM":"UTC","PERIOD":"95.593","MEAN_MOTION_DDOT":"0.0000000000000","FILE":"3274074","PERIAPSIS":"546.428","INCLINATION":"53.0569","TLE_LINE2":"2 48683  53.0569  27.2006 0001193  79.7830 344.5813 15.06386861  3605","ELEMENT_SET_NO":"999","MEAN_MOTION":"15.06386861","CLASSIFICATION_TYPE":"U","SITE":"AFETR","OBJECT_ID":"2021-044AX","MEAN_ANOMALY":"344.5813","GP_ID":"193948478","EPHEMERIS_TYPE":"0","COUNTRY_CODE":"US","OBJECT_NAME":"STARLINK-2756","RCS_SIZE":"LARGE"},{"PERIAPSIS":"546.307","TLE_LINE2":"2 48684  53.0566  42.9046 0001291  70.1609 289.9519 15.06404118 36011","INCLINATION":"53.0566","ELEMENT_SET_NO":"999","CLASSIFICATION_TYPE":"U","MEAN_MOTION":"15.06404118","OBJECT_ID":"2021-044AY","SITE":"AFETR","MEAN_ANOMALY":"289.9519","GP_ID":"193949729","COUNTRY_CODE":"US","EPHEMERIS_TYPE":"0","OBJECT_NAME":"STARLINK-2741","RCS_SIZE":"LARGE","CENTER_NAME":"EARTH","DECAY_DATE":null,"REF_FRAME":"TEME","MEAN_ELEMENT_THEORY":"SGP4","ARG_OF_PERICENTER":"70.1609","APOAPSIS":"548.095","LAUNCH_DATE":"2021-05-26","MEAN_MOTION_DOT":"-0.00000085","RA_OF_ASC_NODE":"42.9046","TLE_LINE1":"1 48684U 21044AY  22015.76156392 -.00000085  00000-0  13154-4 0  9992","BSTAR":"0.00001315400000","REV_AT_EPOCH":"3601","OBJECT_TYPE":"PAYLOAD","ECCENTRICITY":"0.00012910","NORAD_CAT_ID":"48684","SEMIMAJOR_AXIS":"6925.336","EPOCH":"2022-01-15T18:16:39.122688","TIME_SYSTEM":"UTC","FILE":"3274074","MEAN_MOTION_DDOT":"0.0000000000000","PERIOD":"95.592"},{"TLE_LINE2":"2 48685  53.0548  27.1947 0001175  92.8045 151.5446 15.06413319  3608","INCLINATION":"53.0548","PERIAPSIS":"546.359","SITE":"AFETR","OBJECT_ID":"2021-044AZ","CLASSIFICATION_TYPE":"U","MEAN_MOTION":"15.06413319","ELEMENT_SET_NO":"999","GP_ID":"193949475","MEAN_ANOMALY":"151.5446","RCS_SIZE":"LARGE","OBJECT_NAME":"STARLINK-2751","COUNTRY_CODE":"US","EPHEMERIS_TYPE":"0","MEAN_ELEMENT_THEORY":"SGP4","ARG_OF_PERICENTER":"92.8045","CENTER_NAME":"EARTH","REF_FRAME":"TEME","DECAY_DATE":null,"REV_AT_EPOCH":"360","TLE_LINE1":"1 48685U 21044AZ  22015.91668981  .00004619  00000-0  32868-3 0  9990","BSTAR":"0.00032868000000","MEAN_MOTION_DOT":"0.00004619","LAUNCH_DATE":"2021-05-26","APOAPSIS":"547.986","RA_OF_ASC_NODE":"27.1947","NORAD_CAT_ID":"48685","SEMIMAJOR_AXIS":"6925.308","EPOCH":"2022-01-15T22:00:01.999584","OBJECT_TYPE":"PAYLOAD","ECCENTRICITY":"0.00011750","MEAN_MOTION_DDOT":"0.0000000000000","FILE":"3274074","PERIOD":"95.591","TIME_SYSTEM":"UTC"},{"OBJECT_ID":"2021-044BA","SITE":"AFETR","MEAN_MOTION":"15.06381627","CLASSIFICATION_TYPE":"U","ELEMENT_SET_NO":"999","INCLINATION":"53.0552","TLE_LINE2":"2 48686  53.0552  32.1976 0001427  64.0528 332.7863 15.06381627  3599","PERIAPSIS":"546.282","RCS_SIZE":"LARGE","OBJECT_NAME":"STARLINK-2629","EPHEMERIS_TYPE":"0","COUNTRY_CODE":"US","GP_ID":"193948728","MEAN_ANOMALY":"332.7863","REV_AT_EPOCH":"359","BSTAR":"0.00380210000000","TLE_LINE1":"1 48686U 21044BA  22015.91668981  .00056780  00000-0  38021-2 0  9993","RA_OF_ASC_NODE":"32.1976","APOAPSIS":"548.258","LAUNCH_DATE":"2021-05-26","MEAN_MOTION_DOT":"0.00056780","ARG_OF_PERICENTER":"64.0528","MEAN_ELEMENT_THEORY":"SGP4","REF_FRAME":"TEME","DECAY_DATE":null,"CENTER_NAME":"EARTH","PERIOD":"95.593","FILE":"3274074","MEAN_MOTION_DDOT":"0.0000000000000","TIME_SYSTEM":"UTC","EPOCH":"2022-01-15T22:00:01.999584","SEMIMAJOR_AXIS":"6925.405","NORAD_CAT_ID":"48686","ECCENTRICITY":"0.00014270","OBJECT_TYPE":"PAYLOAD"}];
